{
  "type": "FeatureCollection",
  "features": [
    {
      "type": "Feature",
      "properties": {
        "norad_id": 30912,
        "name": "FENGYUN 1C DEB",
        "group": "fengyun-1c-debris",
        "lat": -57.58671082913601,
        "lon": -141.2248280571919,
        "alt_km": 620.46491460574,
        "timestamp": "2025-12-27T02:10:16.468808+00:00",
        "meta_object_name": "FENGYUN 1C DEB",
        "meta_object_id": "1999-025AZA",
        "meta_epoch": "2025-12-26T08:42:07.469280",
        "meta_mean_motion": 14.89710205,
        "meta_eccentricity": 0.0059059,
        "meta_inclination": 98.9957,
        "meta_ra_of_asc_node": 203.5005,
        "meta_arg_of_pericenter": 54.747,
        "meta_mean_anomaly": 305.925,
        "meta_ephemeris_type": 0,
        "meta_classification_type": "U",
        "meta_norad_cat_id": 30912,
        "meta_element_set_no": 999,
        "meta_rev_at_epoch": 99607,
        "meta_bstar": 0.0012953,
        "meta_mean_motion_dot": 0.00012761,
        "meta_mean_motion_ddot": 0,
        "tle_line1": "1 30912U 99025AZA 25360.36258645  .00012761  00000+0  12953-2 0  9993",
        "tle_line2": "2 30912  98.9957 203.5005 0059059  54.7470 305.9250 14.89710205996076"
      },
      "geometry": {
        "type": "Point",
        "coordinates": [
          -141.2248280571919,
          -57.58671082913601
        ]
      }
    },
    {
      "type": "Feature",
      "properties": {
        "norad_id": 30913,
        "name": "FENGYUN 1C DEB",
        "group": "fengyun-1c-debris",
        "lat": 62.59123610756481,
        "lon": 10.251351613530927,
        "alt_km": 862.7171078042675,
        "timestamp": "2025-12-27T02:10:16.468818+00:00",
        "meta_object_name": "FENGYUN 1C DEB",
        "meta_object_id": "1999-025AZB",
        "meta_epoch": "2025-12-25T00:18:04.196448",
        "meta_mean_motion": 14.04972109,
        "meta_eccentricity": 0.00488649,
        "meta_inclination": 98.7447,
        "meta_ra_of_asc_node": 25.5156,
        "meta_arg_of_pericenter": 147.4336,
        "meta_mean_anomaly": 212.9862,
        "meta_ephemeris_type": 0,
        "meta_classification_type": "U",
        "meta_norad_cat_id": 30913,
        "meta_element_set_no": 999,
        "meta_rev_at_epoch": 96090,
        "meta_bstar": 0.00074195676,
        "meta_mean_motion_dot": 1.165e-05,
        "meta_mean_motion_ddot": 0,
        "tle_line1": "1 30913U 99025AZB 25359.01254857  .00001165  00000+0  74196-3 0  9999",
        "tle_line2": "2 30913  98.7447  25.5156 0048864 147.4336 212.9862 14.04972109960900"
      },
      "geometry": {
        "type": "Point",
        "coordinates": [
          10.251351613530927,
          62.59123610756481
        ]
      }
    },
    {
      "type": "Feature",
      "properties": {
        "norad_id": 30914,
        "name": "FENGYUN 1C DEB",
        "group": "fengyun-1c-debris",
        "lat": 26.761983562446034,
        "lon": -121.00560292925537,
        "alt_km": 1047.280933943065,
        "timestamp": "2025-12-27T02:10:16.468828+00:00",
        "meta_object_name": "FENGYUN 1C DEB",
        "meta_object_id": "1999-025AZC",
        "meta_epoch": "2025-12-23T09:59:19.017312",
        "meta_mean_motion": 13.08882678,
        "meta_eccentricity": 0.05169044,
        "meta_inclination": 99.9832,
        "meta_ra_of_asc_node": 240.6486,
        "meta_arg_of_pericenter": 330.1456,
        "meta_mean_anomaly": 27.1068,
        "meta_ephemeris_type": 0,
        "meta_classification_type": "U",
        "meta_norad_cat_id": 30914,
        "meta_element_set_no": 999,
        "meta_rev_at_epoch": 59215,
        "meta_bstar": 0.0026040863,
        "meta_mean_motion_dot": 1.674e-05,
        "meta_mean_motion_ddot": 0,
        "tle_line1": "1 30914U 99025AZC 25357.41619233  .00001674  00000+0  26041-2 0  9995",
        "tle_line2": "2 30914  99.9832 240.6486 0516904 330.1456  27.1068 13.08882678592153"
      },
      "geometry": {
        "type": "Point",
        "coordinates": [
          -121.00560292925537,
          26.761983562446034
        ]
      }
    },
    {
      "type": "Feature",
      "properties": {
        "norad_id": 30915,
        "name": "FENGYUN 1C DEB",
        "group": "fengyun-1c-debris",
        "lat": -25.217839696846255,
        "lon": 81.78527744301614,
        "alt_km": 847.677317227488,
        "timestamp": "2025-12-27T02:10:16.468838+00:00",
        "meta_object_name": "FENGYUN 1C DEB",
        "meta_object_id": "1999-025AZD",
        "meta_epoch": "2025-12-25T21:38:48.520608",
        "meta_mean_motion": 14.25133348,
        "meta_eccentricity": 0.0053111,
        "meta_inclination": 98.9406,
        "meta_ra_of_asc_node": 76.3231,
        "meta_arg_of_pericenter": 131.4683,
        "meta_mean_anomaly": 229.1074,
        "meta_ephemeris_type": 0,
        "meta_classification_type": "U",
        "meta_norad_cat_id": 30915,
        "meta_element_set_no": 999,
        "meta_rev_at_epoch": 96700,
        "meta_bstar": 0.001527,
        "meta_mean_motion_dot": 3.592e-05,
        "meta_mean_motion_ddot": 0,
        "tle_line1": "1 30915U 99025AZD 25359.90195047  .00003592  00000+0  15270-2 0  9997",
        "tle_line2": "2 30915  98.9406  76.3231 0053111 131.4683 229.1074 14.25133348967006"
      },
      "geometry": {
        "type": "Point",
        "coordinates": [
          81.78527744301614,
          -25.217839696846255
        ]
      }
    },
    {
      "type": "Feature",
      "properties": {
        "norad_id": 30916,
        "name": "FENGYUN 1C DEB",
        "group": "fengyun-1c-debris",
        "lat": -77.73038089948487,
        "lon": -165.3776047940722,
        "alt_km": 837.149566939831,
        "timestamp": "2025-12-27T02:10:16.468848+00:00",
        "meta_object_name": "FENGYUN 1C DEB",
        "meta_object_id": "1999-025AZE",
        "meta_epoch": "2025-12-24T03:19:11.326656",
        "meta_mean_motion": 14.08841468,
        "meta_eccentricity": 0.00633965,
        "meta_inclination": 99.0015,
        "meta_ra_of_asc_node": 58.4657,
        "meta_arg_of_pericenter": 226.4081,
        "meta_mean_anomaly": 190.1574,
        "meta_ephemeris_type": 0,
        "meta_classification_type": "U",
        "meta_norad_cat_id": 30916,
        "meta_element_set_no": 999,
        "meta_rev_at_epoch": 96004,
        "meta_bstar": 0.0011422877,
        "meta_mean_motion_dot": 1.964e-05,
        "meta_mean_motion_ddot": 0,
        "tle_line1": "1 30916U 99025AZE 25358.13832554  .00001964  00000+0  11423-2 0  9990",
        "tle_line2": "2 30916  99.0015  58.4657 0063396 226.4081 190.1574 14.08841468960040"
      },
      "geometry": {
        "type": "Point",
        "coordinates": [
          -165.3776047940722,
          -77.73038089948487
        ]
      }
    },
    {
      "type": "Feature",
      "properties": {
        "norad_id": 30918,
        "name": "FENGYUN 1C DEB",
        "group": "fengyun-1c-debris",
        "lat": 80.75472905825859,
        "lon": 46.648891332031724,
        "alt_km": 782.8129966777997,
        "timestamp": "2025-12-27T02:10:16.468859+00:00",
        "meta_object_name": "FENGYUN 1C DEB",
        "meta_object_id": "1999-025AZG",
        "meta_epoch": "2025-12-23T19:23:57.178752",
        "meta_mean_motion": 13.96854434,
        "meta_eccentricity": 0.01571218,
        "meta_inclination": 98.4166,
        "meta_ra_of_asc_node": 109.0886,
        "meta_arg_of_pericenter": 94.6413,
        "meta_mean_anomaly": 55.6962,
        "meta_ephemeris_type": 0,
        "meta_classification_type": "U",
        "meta_norad_cat_id": 30918,
        "meta_element_set_no": 999,
        "meta_rev_at_epoch": 95207,
        "meta_bstar": 0.00069575463,
        "meta_mean_motion_dot": 1.037e-05,
        "meta_mean_motion_ddot": 0,
        "tle_line1": "1 30918U 99025AZG 25357.80830068  .00001037  00000+0  69575-3 0  9996",
        "tle_line2": "2 30918  98.4166 109.0886 0157121  94.6413  55.6962 13.96854434952076"
      },
      "geometry": {
        "type": "Point",
        "coordinates": [
          46.648891332031724,
          80.75472905825859
        ]
      }
    },
    {
      "type": "Feature",
      "properties": {
        "norad_id": 30920,
        "name": "FENGYUN 1C DEB",
        "group": "fengyun-1c-debris",
        "lat": -63.146655607430944,
        "lon": 160.48552797660645,
        "alt_km": 883.105447455714,
        "timestamp": "2025-12-27T02:10:16.468869+00:00",
        "meta_object_name": "FENGYUN 1C DEB",
        "meta_object_id": "1999-025AZJ",
        "meta_epoch": "2025-12-26T16:18:21.431808",
        "meta_mean_motion": 14.16789745,
        "meta_eccentricity": 0.010775,
        "meta_inclination": 98.9176,
        "meta_ra_of_asc_node": 142.0077,
        "meta_arg_of_pericenter": 57.9231,
        "meta_mean_anomaly": 303.2351,
        "meta_ephemeris_type": 0,
        "meta_classification_type": "U",
        "meta_norad_cat_id": 30920,
        "meta_element_set_no": 999,
        "meta_rev_at_epoch": 95291,
        "meta_bstar": 0.0027167,
        "meta_mean_motion_dot": 5.715e-05,
        "meta_mean_motion_ddot": 0,
        "tle_line1": "1 30920U 99025AZJ 25360.67941472  .00005715  00000+0  27167-2 0  9997",
        "tle_line2": "2 30920  98.9176 142.0077 0107750  57.9231 303.2351 14.16789745952919"
      },
      "geometry": {
        "type": "Point",
        "coordinates": [
          160.48552797660645,
          -63.146655607430944
        ]
      }
    }
  ]
}